street_address,zip_code,city,state
7018 Butterfly Ct,32258,Jacksonville,FL
11041 MANDARIN PRESERVE DR,32257,Jacksonville,FL
2937 TINSLEY RD,32218,Jacksonville,FL
3973 ALHAMBRA DR W,32207,Jacksonville,FL
8444 GRAYLING DR,32256,Jacksonville,FL
5340 GATHERING OAKS CT E,32258,Jacksonville,FL
582 CARINA LN,32225,Jacksonville,FL
14090 CRESTWICK DR E,32218,Jacksonville,FL
1796 STERNWHEEL DR,32223,Jacksonville,FL
2304 FOXHAVEN DR W,32224,Jacksonville,FL
4616 SHILOH MILL BLVD,32246,Jacksonville,FL
9262 HAWKS RUN LN,32222,Jacksonville,FL
4242 MELROSE AVE,32210,Jacksonville,FL
14164 BLANCHE RD,32223,Jacksonville,FL
1786 PROVIDENCE HOLLOW LN,32223,Jacksonville,FL
2015 VISCONTI DR,32211,Jacksonville,FL
5928 CLIFTON AVE,32211,Jacksonville,FL
4518 LAWNVIEW ST,32205,Jacksonville,FL
8360 N BARQUERO CT,32217,Jacksonville,FL
2295 HUCKINS CT,32225,Jacksonville,FL
26 FORESTVIEW LN,32081,Ponte Vedra,FL
4325 BUCK POINT RD,32210,Jacksonville,FL
1061 CHATFORD RD,32207,Jacksonville,FL
1431 RIVERPLACE BLVD UNIT 1507,32207,Jacksonville,FL
8313 CHASON RD E,32244,Jacksonville,FL
944 ELDER LN,32207,Jacksonville,FL
4420 SEABREEZE DR,32250,Jacksonville,FL
11708 CRUSSELLE DR,32223,Jacksonville,FL
14480 MAGNOLIA SPRINGS LN E,32258,Jacksonville,FL
14837 INGLE LN,32223,Jacksonville,FL
6716 BAKERSFIELD DR,32210,Jacksonville,FL
9203 JAYBIRD CIR W,32257,Jacksonville,FL
12147 AMBROSIA CT,32223,Jacksonville,FL
14667 CAPSTAN DR,32226,Jacksonville,FL
13858 SOFT WIND TRL N,32224,Jacksonville,FL
3910 COLONY COVE TRL,32277,Jacksonville,FL
7144 MADRID AVE,32217,Jacksonville,FL
12501 EAGLES CLAW LN,32225,Jacksonville,FL
13748 HAMMOCK CAY DR,32225,Jacksonville,FL
2801 PARRISH CEMETERY RD,32221,Jacksonville,FL
1151 EVENING STROLL LN,32221,Jacksonville,FL
118 White Marsh Dr,32081,Ponte Vedra,FL
8993 WINDING VINE DR W,32244,Jacksonville,FL
8697 PINEVALLEY LN,32244,Jacksonville,FL
4809 Black Pine Ct,32210,Jacksonville,FL
1408 NICHOLSON RD,32207,Jacksonville,FL
8930 CHISWICK CT,32257,Jacksonville,FL
8200 SHADE TREE CT,32256,Jacksonville,FL
10809 BAHIA DR,32246,Jacksonville,FL
789 Queens Harbor Blvd,32225,Jacksonville,FL
8523 HAMPTON LANDING DR,32256,Jacksonville,FL
11683 Marsh Elder Dr,32226,Jacksonville,FL
3309 Spring Glen Rd,32207,Jacksonville,FL
7632 PILGRIMS TRACE DR,32244,Jacksonville,FL
5746 Fiat Ln,32244,Jacksonville,FL
12035 TYMBER HAMMOCK CT,32223,Jacksonville,FL
8810 Osprey Ln,32217,Jacksonville,FL
1620 Swimming Salmon Pl S,32225,Jacksonville,FL
719 Sid Dr,32218,Jacksonville,FL
7825 Ramona Blvd,32221,Jacksonville,FL
5244 TALLULAH LAKE CT,32224,Jacksonville,FL
789 QUEENS HARBOR BLVD UNIT 1,32225,Jacksonville,FL
2859 CASSIA LN,32246,Jacksonville,FL
10456 Keuka Dr,32218,Jacksonville,FL
5375 OAK BAY DR,32277,Jacksonville,FL
1896 SUNNYMEADE DR,32211,Jacksonville,FL
7921 Los Robles Ct #7921,32256,Jacksonville,FL
1437 Classic Oak Ct,32225,Jacksonville,FL
10101 Garden Lake Ct,32219,Jacksonville,FL
12467 ROYAL TROON LN,32224,Jacksonville,FL
11423 SARASOTA LN,32218,Jacksonville,FL
6942 SALAMANCA AVE W,32217,Jacksonville,FL
5533 COASTAL LN,32258,Jacksonville,FL
426 Overbrook Dr #108,32225,Jacksonville,FL
12901 SILVER SPRINGS DR S,32246,Jacksonville,FL
11401 Ramallah Rd,32219,Jacksonville,FL
12001 E RISING OAKS DR,32223,Jacksonville,FL
6427 Simca Dr,32277,Jacksonville,FL
7303 Adele Ct,32277,Jacksonville,FL
2033 OAKMONT DR,32211,Jacksonville,FL
7745 Deerwood Point Ct #19,32256,Jacksonville,FL
3805 EUNICE RD,32250,Jacksonville,FL
9750 BROCKHAM CT,32221,Jacksonville,FL
9456 HARRIER CT,32221,Jacksonville,FL
14142 Mahogany Ave,32258,Jacksonville,FL
12586 Condor Dr,32223,Jacksonville,FL
13037 Aegean Dr,32246,Jacksonville,FL
4402 HUNTERSTON LN,32224,Jacksonville,FL
8440 Gatepost Ct,32244,Jacksonville,FL
5947 PEELER RD S,32277,Jacksonville,FL
12427 MESA VERDE TRL,32223,Jacksonville,FL
16101 SHELLCRACKER RD,32226,Jacksonville,FL
6952 RAMOTH DR,32226,Jacksonville,FL
8290 Gate Pkwy W UNIT 512,32216,Jacksonville,FL
10630 WILD AZALEA CT,32221,Jacksonville,FL
2971 COVENANT COVE DR,32224,Jacksonville,FL
1130 Le Brun Dr,32205,Jacksonville,FL
4008 FIELD BROOK LN,32223,Jacksonville,FL
3045 BLUE HERON DR N,32223,Jacksonville,FL
400 E Bay St SUITE 610,32202,Jacksonville,FL
7631 Rolling Hills Dr,32221,Jacksonville,FL
8108 NISKA TRL,32244,Jacksonville,FL
2141 Bills Dr,32210,Jacksonville,FL
4457 Barrington Oaks Dr,32257,Jacksonville,FL
3605 SILVERY LN,32217,Jacksonville,FL
12187 BASALT DR N,32246,Jacksonville,FL
13364 Beach Blvd UNIT 431,32224,Jacksonville,FL
7755 Playschool Ln,32210,Jacksonville,FL
3787 CATANIA PL,32224,Jacksonville,FL
2426 ALEXIA CIR,32246,Jacksonville,FL
8680 BANDERA CIR S,32244,Jacksonville,FL
10803 Gladwynne RD,32218,Jacksonville,FL
4744 RAMONA BLVD,32205,Jacksonville,FL
3398 Guernsey Ct,32226,Jacksonville,FL
1043 MARTINIQUE RD,32216,Jacksonville,FL
3084 WATSON DR S,32257,Jacksonville,FL
12861 JULINGTON FOREST DR E,32258,Jacksonville,FL
13810 Sutton Park Dr N APT 926,32224,Jacksonville,FL
12738 N TROPIC DR,32225,Jacksonville,FL
14856 DURBIN COVE WAY,32259,Jacksonville,FL
1033 Busac Ave,32205,Jacksonville,FL
8965 Bridgecreek Dr,32244,Jacksonville,FL
3229 PARK ST,32205,Jacksonville,FL
1042 OVINGTON RD S,32216,Jacksonville,FL
4968 Meganwood Ln,32257,Jacksonville,FL
6033 CHEVY DR,32216,Jacksonville,FL
10535 SCOTT MILL RD,32257,Jacksonville,FL
14359 STACEY RD,32250,Jacksonville,FL
12742 S GLADE SPRINGS DR,32246,Jacksonville,FL
3725 HAWKS BAY CT,32224,Jacksonville,FL
2512 TUSCAN OAKS LN,32223,Jacksonville,FL
1674 HAMMOCK GROVE LN,32225,Jacksonville,FL
14906 FISHHAWK PRESERVE DR,32206,Jacksonville,FL
7202 Electra Dr S,32210,Jacksonville,FL
3903 Cobalt Ave E,32210,Jacksonville,FL
5014 EULACE RD,32210,Jacksonville,FL
11287 SCOTT MILL RD,32223,Jacksonville,FL
3371 MARY DRAPER CT,32223,Jacksonville,FL
12797 E BURNING TREE LN,32223,Jacksonville,FL
3466 REMLER DR S,32223,Jacksonville,FL
1855 Mauva Juan Ave,32225,Jacksonville,FL
13759 CANFIELD CT,32224,Jacksonville,FL
12826 GREENMEADOW PL,32246,Jacksonville,FL
13850 Ketch Cove Dr,32224,Jacksonville,FL
4775 E MARSH HAMMOCK DR,32224,Jacksonville,FL
13035 SUNSET LAKE DR,32258,Jacksonville,FL
7791 Merchants Way,32222,Jacksonville,FL
2450 CANAL WAY,32223,Jacksonville,FL
12102 DIVIDING OAKS TRL E,32223,Jacksonville,FL
3420 REMLER DR S,32223,Jacksonville,FL
5811 Atlantic Blvd UNIT 121,32207,Jacksonville,FL
2447 Caney Oaks Dr E,32218,Jacksonville,FL
1934 DELRAY AVE,32210,Jacksonville,FL
4373 HEAVEN TREES RD,32207,Jacksonville,FL
12887 Plummer Grant Rd,32258,Jacksonville,FL
11906 HOOD LANDING RD,32258,Jacksonville,FL
12836 ISLEWORTH DR,32225,Jacksonville,FL
12277 VERSAILLES ST,32224,Jacksonville,FL
3012 BROUGHAM AVE,32246,Jacksonville,FL
2242 BRISTOL SPRING CT,32246,Jacksonville,FL
12068 Colby Creek Dr,32258,Jacksonville,FL
10539 AVENTURA DR,32256,Jacksonville,FL
1903 Muncie Ave,32210,Jacksonville,FL
3852 ST JOHNS AVE,32205,Jacksonville,FL
2250 FLATWOOD CT,32223,Jacksonville,FL
501 Tidal Wave Ln,32218,Jacksonville,FL
4161 Sunset Ln S,32257,Jacksonville,FL
4551 HARBOUR NORTH CT,32225,Jacksonville,FL
5342 SKYLARK MANOR DR,32257,Jacksonville,FL
4480 Deerwood Lake Pkwy UNIT 422,32216,Jacksonville,FL
13846 Atlantic Blvd APT 111,32225,Jacksonville,FL
13106 Wexford Hollow Rd N,32224,Jacksonville,FL
2957 Gilmore St,32205,Jacksonville,FL
9890 KINGS CROSSING DR,32219,Jacksonville,FL
1154 HICKORY COVE,32221,Jacksonville,FL
1496 BLOOMINGDALE RD,32221,Jacksonville,FL
7032 Jammes Rd,32244,Jacksonville,FL
745 GRANADA BLVD S,32207,Jacksonville,FL
4736 GREAT WESTERN LN S,32257,Jacksonville,FL
12220 Three Springmoor Ct,32225,Jacksonville,FL
12971 WINTHROP COVE DR,32224,Jacksonville,FL
4645 TREVOR CREEK DR N,32257,Jacksonville,FL
3189 Laurel Grv N,32223,Jacksonville,FL
12521 Condor Dr,32223,Jacksonville,FL
6836 Hanford St,32219,Jacksonville,FL
7915 RENAULT DR,32244,Jacksonville,FL
12220 SPRINGMOOR THREE CT,32225,Jacksonville,FL
1957 April Oaks Dr,32221,Jacksonville,FL
12903 Josslyn Ln,32246,Jacksonville,FL
12907 Josslyn Ln,32246,Jacksonville,FL
7766 Oregano Ct,32244,Jacksonville,FL
6613 CARTIER CIR,32208,Jacksonville,FL
3979 RAINTREE RD,32277,Jacksonville,FL
12521 ATTRILL RD,32258,Jacksonville,FL
4345 Morning Dove Dr,32258,Jacksonville,FL
1387 PINK PANTHER DR,32225,Jacksonville,FL
11175 CHESTER LAKE RD W,32256,Jacksonville,FL
7758 CHIPWOOD LN,32256,Jacksonville,FL
10961 Burnt Mill Rd APT 1234,32256,Jacksonville,FL
15254 LANDMARK CIR S,32226,Jacksonville,FL
